LEMUR-2-AMANDA-SVANTE   
1 48269U 21034B   23283.75757218  .00013354  00000+0  12674-2 0  9996
2 48269  97.6966 348.9550 0001828 289.7532  70.3491 14.93648406133054
LEMUR-2-SPECIAL-K       
1 48273U 21034F   23284.18499206  .00013904  00000+0  13177-2 0  9999
2 48273  97.6957 349.4587 0002238 287.0117  73.0858 14.93695596133139
LEMUR-2-JACKSON         
1 48885U 21059G   23283.88850185  .00099118  00000+0  18404-2 0  9997
2 48885  97.5960  66.4601 0005257 228.7046 131.3752 15.48559707127308
LEMUR-2-ANNABANANA      
1 48923U 21059AW  23284.36435178  .00048735  00000+0  91295-3 0  9994
2 48923  97.5905  68.5707 0005268 199.3565 160.7486 15.48517415127525
LEMUR-2-JOHN-TREIRES    
1 48925U 21059AY  23284.39275739  .00219625  00000+0  21631-2 0  9998
2 48925  97.6065  72.0149 0005440 214.9739 145.1164 15.65253987127681
LEMUR-2-AC-CUBED        
1 48927U 21059BA  23283.89171654  .00097217  00000+0  18049-2 0  9995
2 48927  97.6057  68.2050 0008375 205.9524 154.1307 15.48548128127419
LEMUR-2-MERIMA          
1 48929U 21059BC  23283.91690089  .00115451  00000+0  17747-2 0  9993
2 48929  97.5898  69.0465 0006717 204.7996 155.2935 15.53817301127518
LEMUR-2-RAMONAMAE       
1 51021U 22002AP  23284.50173437  .00040502  00000+0  97267-3 0  9998
2 51021  97.4305 355.1653 0005442 179.4579 180.6675 15.41227404 96754
LEMUR-2-KING-JULIEN     
1 51022U 22002AQ  23283.96043141  .00128590  00000+0  25413-2 0  9993
2 51022  97.4282 354.3429 0005234 180.7813 179.3429 15.46639163 96662
LEMUR-2-ROHOVITHSA      
1 51036U 22002BE  23284.49492346  .00042544  00000+0  14438-2 0  9991
2 51036  97.4285 351.2273 0006707 187.4195 172.6948 15.30365595 96497
LEMUR-2-MIRIWARI        
1 51054U 22002BY  23284.13628209  .00046565  00000+0  15261-2 0  9993
2 51054  97.4272 351.0173 0005882 187.1280 172.9878 15.31476417 96453
LEMUR-2-DJIRANG         
1 51058U 22002CC  23284.13720567  .00056219  00000+0  18406-2 0  9998
2 51058  97.4251 350.8340 0005785 187.1196 172.9964 15.31460069 96457
LEMUR-2-TENNYSONLILY    
1 52732U 22057A   23283.90411249  .00093927  00000+0  22902-2 0  9999
2 52732  97.5604  44.4615 0005577 303.2354  56.8356 15.40520021 76499
LEMUR-2-VANDENDRIES     
1 52733U 22057B   23284.32337061  .00067338  00000+0  22139-2 0  9995
2 52733  97.5418  41.9290 0005322 312.0086  48.0702 15.31272260 76422
LEMUR-2-KAREN B         
1 52736U 22057E   23283.87883966  .00113654  00000+0  24886-2 0  9991
2 52736  97.5461  44.2114 0005172 295.8341  64.2373 15.43677279 76537
LEMUR-2-HANCOM-1        
1 52740U 22057J   23283.90608966  .00046370  00000+0  15507-2 0  9995
2 52740  97.5622  42.9431 0006817 309.3529  50.7107 15.30820195 76374
LEMUR-2-MIMI1307        
1 52769U 22057AP  23284.32126521  .00038059  00000+0  12621-2 0  9994
2 52769  97.5616  43.5349 0008610 281.0867  78.9406 15.31126576 76453
LEMUR-2-PHILARI         
1 55013U 23001E   23283.71139422  .00050911  00000+0  19838-2 0  9993
2 55013  97.4628 342.6782 0006594 336.0241  24.0689 15.25770889 42655
LEMUR-2-DISCLAIMER      
1 55014U 23001F   23284.14664129  .00045023  00000+0  17969-2 0  9990
2 55014  97.4676 343.1685 0007815 339.3087  20.7833 15.24993684 42718
LEMUR-2-STEVEALBERS     
1 55017U 23001J   23284.13463291  .00041599  00000+0  16901-2 0  9998
2 55017  97.4612 342.8256 0007160 334.9198  25.1690 15.24418893 42701
LEMUR-2-EMMACULATE      
1 55037U 23001AE  23283.71686626  .00059250  00000+0  20950-2 0  9994
2 55037  97.4681 343.7931 0010553 318.6593  41.3847 15.28907805 42712
LEMUR-2-MMOLO           
1 55038U 23001AF  23283.68098895  .00015938  00000+0  61112-3 0  9997
2 55038  97.4700 343.9001 0012202 323.9361  36.1053 15.26517980 42710
LEMUR-2-FUENTETAJA-01   
1 55088U 23001CH  23284.44731293  .00047846  00000+0  18549-2 0  9991
2 55088  97.4709 344.1451 0010861 316.0808  43.9566 15.25923182 42791
LEMUR-2-ONREFLECTION    
1 56182U 23054E   23283.65483515  .00032536  00000+0  12174-2 0  9996
2 56182  97.3812 177.0126 0007919   4.5007 355.6302 15.27217746 27779
LEMUR-2-SPACEGUS        
1 56187U 23054K   23283.79337717  .00030574  00000+0  11234-2 0  9994
2 56187  97.3819 177.2972 0007043 353.2703   6.8440 15.27836947 27809
LEMUR-2-ROMEO-N-LEO     
1 56206U 23054AE  23283.70231905  .00091954  00000+0  26088-2 0  9991
2 56206  97.3777 178.1290 0007249 338.1556  21.9378 15.35840304 27857
LEMUR-2-EMBRIONOVIS     
1 56970U 23084AQ  23283.87574992  .00009852  00000+0  52911-3 0  9997
2 56970  97.5281  39.0726 0016190 156.6339 203.5632 15.15008314 18163
LEMUR-2-NAZIYAH         
1 56974U 23084AU  23283.85652759  .00013112  00000+0  65777-3 0  9995
2 56974  97.5181  39.0994 0014518 148.8405 211.3692 15.17362171 18172
LEMUR-2-AADAM-ALIYAH    
1 56977U 23084AX  23284.11903976  .00037706  00000+0  18796-2 0  9991
2 56977  97.5203  39.3945 0015020 149.3774 210.8339 15.17342562 18212
LEMUR-2-MANO            
1 57390U 23100E   23284.35108290  .00013795  00000+0  11231-2 0  9991
2 57390  99.4730  67.8169 0016842  18.4195 341.7628 14.99579199 12775
LEMUR-2-DEVERILL-M-T    
1 57391U 23100F   23283.85953437  .00013283  00000+0  10738-2 0  9990
2 57391  99.4688  67.3190 0012235  17.2700 342.8932 14.99916251 12705
